[{"OBJECT_NAME":"STARLINK-34585","OBJECT_ID":"2025-147AA","EPOCH":"2026-03-09T18:05:33.386496","MEAN_MOTION":15.30193722,"ECCENTRICITY":0.0001063,"INCLINATION":53.159,"RA_OF_ASC_NODE":242.2993,"ARG_OF_PERICENTER":82.9782,"MEAN_ANOMALY":277.134,"EPHEMERIS_TYPE":0,"CLASSIFICATION_TYPE":"U","NORAD_CAT_ID":64779,"ELEMENT_SET_NO":999,"REV_AT_EPOCH":3871,"BSTAR":0.00070632141,"MEAN_MOTION_DOT":0.00020614,"MEAN_MOTION_DDOT":0},{"OBJECT_NAME":"239ALFEROV (RS61S)","OBJECT_ID":"2025-155F","EPOCH":"2026-03-09T21:46:33.382848","MEAN_MOTION":15.29933217,"ECCENTRICITY":0.00084878,"INCLINATION":97.4469,"RA_OF_ASC_NODE":37.6373,"ARG_OF_PERICENTER":151.5904,"MEAN_ANOMALY":208.58,"EPHEMERIS_TYPE":0,"CLASSIFICATION_TYPE":"U","NORAD_CAT_ID":64881,"ELEMENT_SET_NO":999,"REV_AT_EPOCH":6561,"BSTAR":0.00067233359,"MEAN_MOTION_DOT":0.00019457,"MEAN_MOTION_DDOT":0}]
